[{"OBJECT_NAME":"VIZARD-METEO (RS38S)","OBJECT_ID":"2023-091Z","EPOCH":"2026-03-09T23:01:09.168960","MEAN_MOTION":15.32764799,"ECCENTRICITY":0.00087615,"INCLINATION":97.5192,"RA_OF_ASC_NODE":136.6522,"ARG_OF_PERICENTER":71.7666,"MEAN_ANOMALY":288.4529,"EPHEMERIS_TYPE":0,"CLASSIFICATION_TYPE":"U","NORAD_CAT_ID":57189,"ELEMENT_SET_NO":999,"REV_AT_EPOCH":14947,"BSTAR":0.00066106249,"MEAN_MOTION_DOT":0.00020895,"MEAN_MOTION_DDOT":0},{"OBJECT_NAME":"STARLINK-35072","OBJECT_ID":"2025-198P","EPOCH":"2026-03-09T20:00:18.164448","MEAN_MOTION":15.30205252,"ECCENTRICITY":0.00010767,"INCLINATION":53.1581,"RA_OF_ASC_NODE":270.2196,"ARG_OF_PERICENTER":73.5353,"MEAN_ANOMALY":286.5766,"EPHEMERIS_TYPE":0,"CLASSIFICATION_TYPE":"U","NORAD_CAT_ID":65505,"ELEMENT_SET_NO":999,"REV_AT_EPOCH":2864,"BSTAR":0.00083041101,"MEAN_MOTION_DOT":0.0002432,"MEAN_MOTION_DDOT":0}]
